[{"OBJECT_NAME":"STARLINK-31182","OBJECT_ID":"2024-044H","EPOCH":"2026-03-09T10:53:33.640512","MEAN_MOTION":15.27593573,"ECCENTRICITY":3.887e-5,"INCLINATION":42.998,"RA_OF_ASC_NODE":108.0029,"ARG_OF_PERICENTER":227.2517,"MEAN_ANOMALY":132.8302,"EPHEMERIS_TYPE":0,"CLASSIFICATION_TYPE":"U","NORAD_CAT_ID":59159,"ELEMENT_SET_NO":999,"REV_AT_EPOCH":11356,"BSTAR":-0.00011253326,"MEAN_MOTION_DOT":-3.358e-5,"MEAN_MOTION_DDOT":0},{"OBJECT_NAME":"239ALFEROV (RS61S)","OBJECT_ID":"2025-155F","EPOCH":"2026-03-09T21:46:33.382848","MEAN_MOTION":15.29933217,"ECCENTRICITY":0.00084878,"INCLINATION":97.4469,"RA_OF_ASC_NODE":37.6373,"ARG_OF_PERICENTER":151.5904,"MEAN_ANOMALY":208.58,"EPHEMERIS_TYPE":0,"CLASSIFICATION_TYPE":"U","NORAD_CAT_ID":64881,"ELEMENT_SET_NO":999,"REV_AT_EPOCH":6561,"BSTAR":0.00067233359,"MEAN_MOTION_DOT":0.00019457,"MEAN_MOTION_DDOT":0}]
